[{"OBJECT_NAME":"STARLINK-2180","OBJECT_ID":"2021-017AS","EPOCH":"2026-03-09T16:39:20.636640","MEAN_MOTION":15.38029481,"ECCENTRICITY":7.347e-5,"INCLINATION":53.1608,"RA_OF_ASC_NODE":219.0004,"ARG_OF_PERICENTER":49.2837,"MEAN_ANOMALY":310.823,"EPHEMERIS_TYPE":0,"CLASSIFICATION_TYPE":"U","NORAD_CAT_ID":47762,"ELEMENT_SET_NO":999,"REV_AT_EPOCH":27765,"BSTAR":0.00067692764,"MEAN_MOTION_DOT":0.00025397,"MEAN_MOTION_DDOT":0},{"OBJECT_NAME":"COSMOS 2251 DEB","OBJECT_ID":"1993-036AUE","EPOCH":"2026-03-08T22:06:30.884256","MEAN_MOTION":15.42946288,"ECCENTRICITY":0.00344361,"INCLINATION":73.9832,"RA_OF_ASC_NODE":267.6989,"ARG_OF_PERICENTER":14.478,"MEAN_ANOMALY":345.7407,"EPHEMERIS_TYPE":0,"CLASSIFICATION_TYPE":"U","NORAD_CAT_ID":35891,"ELEMENT_SET_NO":999,"REV_AT_EPOCH":68545,"BSTAR":0.0016060523,"MEAN_MOTION_DOT":0.00072861,"MEAN_MOTION_DDOT":0}]
